CAS-2T & KS-1Q          
1 41847U 16066G   20195.85566148  .00000035  00000-0  15101-4 0  9993
2 41847  98.6519 246.6368 0366351 150.1151 212.1517 14.38077062193210
NAYIF-1 (EO-88)         
1 42017U 17008BX  20195.83476570  .00000940  00000-0  38723-4 0  9997
2 42017  97.3585 263.0115 0005072 215.2329 144.8575 15.26557215189572
MAX VALIER SAT          
1 42778U 17036P   20195.76073861  .00000540  00000-0  26136-4 0  9991
2 42778  97.3030 248.6670 0010465 292.9805  67.0327 15.22658135169735
RADFXSAT (FOX-1B)       
1 43017U 17073E   20195.70753458  .00000347  00000-0  32881-4 0  9999
2 43017  97.7216 106.9301 0256087 325.1413  33.3252 14.78968259143045
FOX-1D (AO-92)          
1 43137U 18004AC  20195.87645532  .00000604  00000-0  27750-4 0  9993
2 43137  97.4446 266.8578 0008180 332.6240  27.4565 15.24164168139070
DIWATA-2B               
1 43678U 18084H   20195.90448467  .00000388  00000-0  44343-4 0  9999
2 43678  97.8882 314.3112 0011372  89.8231 270.4284 14.91641439 92967
ES'HAIL 2               
1 43700U 18090A   20195.72507613  .00000149  00000-0  00000-0 0  9994
2 43700   0.0113 324.9998 0001563 187.8275  66.0531  1.00273549  5971
FOX-1CLIFF (AO-95)      
1 43770U 18099N   20195.87952108  .00000583  00000-0  58382-4 0  9991
2 43770  97.7047 266.7985 0016181 107.6843 252.6145 14.95004379 87862
ITASAT 1                
1 43786U 18099AE  20195.66972409  .00000326  00000-0  34672-4 0  9992
2 43786  97.7062 267.0307 0016763 102.7154 257.5942 14.95339608 87859
JY1SAT (JO-97)          
1 43803U 18099AX  20195.68114382  .00000634  00000-0  62229-4 0  9993
2 43803  97.7023 266.8545 0016840 102.8889 257.4214 14.95521020 87851
PSAT2 (NO-104)          
1 44354U 19036R   20195.74044879  .00006595  00000-0  92955-4 0  9998
2 44354  28.5309 207.9303 0362877 231.7935 124.9449 15.03788224 57786
BRICSAT2 (NO-103)       
1 44355U 19036S   20195.71886509  .00012620  00000-0  17338-3 0  9997
2 44355  28.5312 197.9819 0340567 247.9629 108.4458 15.09424779 57888
JAISAT-1                
1 44419U 19038F   20195.81469496  .00000545  00000-0  34605-4 0  9993
2 44419  97.5400 157.1039 0022807  43.1041 317.1970 15.12814245 56582
DUCHIFAT-3              
1 44854U 19089C   20195.67130294  .00000133  00000-0  17204-4 0  9996
2 44854  36.9687 303.4109 0009663 280.4357  79.5299 14.99082370 32233
RS-44 & BREEZE-KM R/B   
1 44909U 19096E   20195.62810097  .00000033  00000-0  84222-4 0  9999
2 44909  82.5227 337.9182 0217780 165.0438 195.7243 12.79708220 25533
ORBITAL FACTORY 2 (OF-2)
1 45113U 19071C   20195.48792308  .00000524  00000-0  27563-4 0  9998
2 45113  51.6432 237.7762 0013203 149.7978 210.3767 15.33426092 25126
HUSKYSAT-1              
1 45119U 19071J   20195.72334643  .00000772  00000-0  34890-4 0  9991
2 45119  51.6427 236.3490 0012502 146.8963 213.2804 15.33637356 25156
